OBJECT_NAME,OBJECT_ID,EPOCH,MEAN_MOTION,ECCENTRICITY,INCLINATION,RA_OF_ASC_NODE,ARG_OF_PERICENTER,MEAN_ANOMALY,EPHEMERIS_TYPE,CLASSIFICATION_TYPE,NORAD_CAT_ID,ELEMENT_SET_NO,REV_AT_EPOCH,BSTAR,MEAN_MOTION_DOT,MEAN_MOTION_DDOT
SIRION PATHFINDER-2,2018-099B,2026-05-12T13:36:16.522560,15.14213536,.00102615,97.4283,182.4749,68.9121,291.3207,0,U,43759,999,40723,.17510284E-3,.3136E-4,0
CORVUS BC4,2018-099K,2026-05-12T14:11:59.671104,15.12197549,.00099033,97.4099,176.6169,119.7088,240.5129,0,U,43767,999,40702,.1766294E-3,.2989E-4,0
M2 PATHFINDER,2020-037E,2026-05-12T11:12:07.224192,15.04517725,.00101639,97.8165,323.2990,274.1533,85.8531,0,U,45727,999,32012,.12879053E-3,.1741E-4,0
NETSAT-4,2020-068U,2026-05-12T11:05:32.149824,15.42659452,.00076432,97.8618,137.8677,91.7168,268.4954,0,U,46504,999,31026,.25525517E-3,.11039E-3,0
NETSAT-3,2020-068V,2026-05-12T10:34:12.540288,15.41428468,.00075343,97.8667,136.1080,104.4667,255.7415,0,U,46505,999,31017,.27543506E-3,.11439E-3,0
NETSAT-1,2020-068W,2026-05-12T10:59:52.781856,15.33755661,.00067249,97.8751,130.8697,123.5532,236.6352,0,U,46506,999,30982,.2512496E-3,.812E-4,0
NETSAT-2,2020-068X,2026-05-12T11:34:59.211264,15.44460158,.00061742,97.8633,137.6644,112.3785,247.8117,0,U,46507,999,31022,.30939012E-3,.14242E-3,0
GREENCUBE (IO-117),2022-080E,2026-05-12T13:02:43.634112,6.42583333,.00088617,70.1440,310.6463,297.7055,62.2705,0,U,53109,999,8977,0,-.3E-7,0
SITRO-AIS 5 (KATYS),2023-091L,2026-05-12T14:23:03.110784,15.28619772,.00106931,97.5084,196.1804,221.1292,138.9143,0,U,57176,999,15890,.26326503E-3,.7263E-4,0
SITRO-AIS 6 (CHIRKIN),2023-091AC,2026-05-12T15:06:02.206944,15.25248061,.0010851,97.5091,195.5137,224.7976,135.2387,0,U,57192,999,15886,.14755999E-3,.364E-4,0
SITRO-AIS 8 (ANOKHIN),2023-091AD,2026-05-12T14:40:27.325632,15.31153127,.0010004,97.5080,197.6412,216.2030,143.8535,0,U,57193,999,15900,.26388107E-3,.7873E-4,0
SITRO-AIS 7 (FARTUSHNIY),2023-091AE,2026-05-12T15:00:23.369472,15.24954222,.00106744,97.5088,195.3525,226.0405,133.9953,0,U,57194,999,15885,.145588E-3,.3558E-4,0
SITRO-AIS 10 (BURDAEV),2023-091AK,2026-05-12T14:13:34.594464,15.37242375,.00070087,97.5099,202.3212,187.3769,172.7373,0,U,57199,999,15929,.31286517E-3,.11341E-3,0
SITRO-AIS 9 (SHCHUKIN),2023-091AM,2026-05-12T14:36:01.539360,15.36790125,.0007205,97.5097,202.0938,188.1211,171.9918,0,U,57201,999,15928,.33719762E-3,.12053E-3,0
SITRO-AIS 12 (SMIRENNIY),2023-091AQ,2026-05-12T14:32:05.175744,15.37074752,.00070253,97.5110,202.5362,182.0337,178.0879,0,U,57204,999,15930,.34228169E-3,.12349E-3,0
SITRO-AIS 11 (SHEFFER),2023-091AU,2026-05-12T15:04:59.543616,15.37466489,.00069311,97.5108,202.7846,181.6887,178.4335,0,U,57208,999,15932,.33498272E-3,.12238E-3,0
SITRO-AIS 25,2024-039R,2026-05-12T14:17:57.418080,14.93258879,.01474868,95.3921,210.6389,92.5850,269.2268,0,U,59066,999,11941,.22141897E-3,.2837E-4,0
SITRO-AIS 26,2024-039S,2026-05-12T15:49:33.074976,14.93062078,.01478227,95.3921,210.5875,92.8922,268.9231,0,U,59067,999,11941,.21104425E-3,.269E-4,0
SITRO-AIS 27,2024-039T,2026-05-12T15:20:55.341024,14.93473447,.01470061,95.3924,210.8290,91.6778,270.1292,0,U,59068,999,11943,.26264207E-3,.3386E-4,0
SITRO-AIS 28,2024-039U,2026-05-12T14:49:37.066368,14.93506692,.01467809,95.3921,210.8595,91.6226,270.1818,0,U,59071,999,11943,.25491337E-3,.3287E-4,0
GRBBETA,2024-128C,2026-05-12T04:16:52.689504,15.06337354,.00453867,61.9909,342.5749,127.2263,233.2985,0,U,60237,999,10084,.18359103E-3,.2553E-4,0
OOV-CUBE (TUBSAT-30),2024-128F,2026-05-12T07:43:17.899680,15.02586812,.00489831,61.9951,350.6172,125.9384,234.6267,0,U,60240,999,10072,.12326382E-3,.1473E-4,0
ROBUSTA-3A (MEDITERRANEE),2024-128J,2026-05-12T12:58:54.945408,15.11102871,.00460924,61.9873,334.2476,121.0992,239.4638,0,U,60243,999,10103,.29679753E-3,.4895E-4,0
LASARSAT,2024-247Q,2026-05-12T14:43:31.719648,15.44141719,.00047038,44.9736,101.7573,116.8398,243.2973,0,U,62391,999,7781,.44600736E-3,.20586E-3,0
CROCUBE,2024-247T,2026-05-12T07:52:23.156256,15.45714762,.00043322,44.9711,101.2241,116.6031,243.5302,0,U,62394,999,7779,.46806845E-3,.22835E-3,0
FORESAIL-1 PRIME,2025-276DS,2026-05-12T11:29:33.484992,15.18365610,.00017718,97.4209,206.4107,189.9191,170.2008,0,U,66778,999,2498,.16364162E-3,.3295E-4,0
KNACKSAT-2,1998-067XZ,2026-05-12T05:53:18.302208,15.56836313,.00125759,51.6275,114.8101,65.8017,294.4288,0,U,67683,999,1467,.38703354E-3,.28003E-3,0
