SIRION PATHFINDER-2     
1 43759U 18099B   26132.56685790  .00003136  00000+0  17510-3 0  9994
2 43759  97.4283 182.4749 0010261  68.9121 291.3207 15.14213536407236
CORVUS BC4              
1 43767U 18099K   26132.59166286  .00002989  00000+0  17663-3 0  9994
2 43767  97.4099 176.6169 0009903 119.7088 240.5129 15.12197549407028
M2 PATHFINDER           
1 45727U 20037E   26132.46675028  .00001741  00000+0  12879-3 0  9991
2 45727  97.8165 323.2990 0010163 274.1533  85.8531 15.04517725320122
NETSAT-4                
1 46504U 20068U   26132.46217766  .00011039  00000+0  25526-3 0  9994
2 46504  97.8618 137.8677 0007643  91.7168 268.4954 15.42659452310264
NETSAT-3                
1 46505U 20068V   26132.44042292  .00011439  00000+0  27544-3 0  9999
2 46505  97.8667 136.1080 0007534 104.4667 255.7415 15.41428468310175
NETSAT-1                
1 46506U 20068W   26132.45824979  .00008120  00000+0  25125-3 0  9997
2 46506  97.8751 130.8697 0006724 123.5532 236.6352 15.33755661309825
NETSAT-2                
1 46507U 20068X   26132.48262976  .00014242  00000+0  30939-3 0  9995
2 46507  97.8633 137.6644 0006174 112.3785 247.8117 15.44460158310222
GREENCUBE (IO-117)      
1 53109U 22080E   26132.54356058 -.00000003  00000+0  00000+0 0  9992
2 53109  70.1440 310.6463 0008861 297.7055  62.2705  6.42583333 89777
SITRO-AIS 5 (KATYS)     
1 57176U 23091L   26132.59934156  .00007263  00000+0  26327-3 0  9997
2 57176  97.5084 196.1804 0010693 221.1292 138.9143 15.28619772158908
SITRO-AIS 6 (CHIRKIN)   
1 57192U 23091AC  26132.62919221  .00003640  00000+0  14756-3 0  9993
2 57192  97.5091 195.5137 0010851 224.7976 135.2387 15.25248061158861
SITRO-AIS 8 (ANOKHIN)   
1 57193U 23091AD  26132.61142738  .00007873  00000+0  26388-3 0  9990
2 57193  97.5080 197.6412 0010004 216.2030 143.8535 15.31153127159008
SITRO-AIS 7 (FARTUSHNIY)
1 57194U 23091AE  26132.62527048  .00003558  00000+0  14559-3 0  9996
2 57194  97.5088 195.3525 0010674 226.0405 133.9953 15.24954222158858
SITRO-AIS 10 (BURDAEV)  
1 57199U 23091AK  26132.59276151  .00011341  00000+0  31287-3 0  9999
2 57199  97.5099 202.3212 0007008 187.3769 172.7373 15.37242375159295
SITRO-AIS 9 (SHCHUKIN)  
1 57201U 23091AM  26132.60835115  .00012053  00000+0  33720-3 0  9991
2 57201  97.5097 202.0938 0007205 188.1211 171.9918 15.36790125159284
SITRO-AIS 12 (SMIRENNIY)
1 57204U 23091AQ  26132.60561546  .00012349  00000+0  34228-3 0  9990
2 57204  97.5110 202.5362 0007025 182.0337 178.0879 15.37074752159300
SITRO-AIS 11 (SHEFFER)  
1 57208U 23091AU  26132.62846694  .00012238  00000+0  33498-3 0  9991
2 57208  97.5108 202.7846 0006931 181.6887 178.4335 15.37466489159325
SITRO-AIS 25            
1 59066U 24039R   26132.59580345  .00002837  00000+0  22142-3 0  9990
2 59066  95.3921 210.6389 0147486  92.5850 269.2268 14.93258879119412
SITRO-AIS 26            
1 59067U 24039S   26132.65941059  .00002690  00000+0  21104-3 0  9995
2 59067  95.3921 210.5875 0147822  92.8922 268.9231 14.93062078119419
SITRO-AIS 27            
1 59068U 24039T   26132.63952941  .00003386  00000+0  26264-3 0  9991
2 59068  95.3924 210.8290 0147006  91.6778 270.1292 14.93473447119437
SITRO-AIS 28            
1 59071U 24039U   26132.61779012  .00003287  00000+0  25491-3 0  9990
2 59071  95.3921 210.8595 0146780  91.6226 270.1818 14.93506692119435
GRBBETA                 
1 60237U 24128C   26132.17838761  .00002553  00000+0  18359-3 0  9993
2 60237  61.9909 342.5749 0045386 127.2263 233.2985 15.06337354100849
OOV-CUBE (TUBSAT-30)    
1 60240U 24128F   26132.32173495  .00001473  00000+0  12326-3 0  9998
2 60240  61.9951 350.6172 0048983 125.9384 234.6267 15.02586812100721
ROBUSTA-3A (MEDITERRAN*)
1 60243U 24128J   26132.54091372  .00004895  00000+0  29680-3 0  9990
2 60243  61.9873 334.2476 0046092 121.0992 239.4638 15.11102871101032
LASARSAT                
1 62391U 24247Q   26132.61356157  .00020586  00000+0  44601-3 0  9996
2 62391  44.9736 101.7573 0004703 116.8398 243.2973 15.44141719 77810
CROCUBE                 
1 62394U 24247T   26132.32804579  .00022835  00000+0  46807-3 0  9992
2 62394  44.9711 101.2241 0004332 116.6031 243.5302 15.45714762 77794
FORESAIL-1 PRIME        
1 66778U 25276DS  26132.47885978  .00003295  00000+0  16364-3 0  9997
2 66778  97.4209 206.4107 0001771 189.9191 170.2008 15.18365610 24988
KNACKSAT-2              
1 67683U 98067XZ  26132.24535072  .00028003  00000+0  38703-3 0  9998
2 67683  51.6275 114.8101 0012575  65.8017 294.4288 15.56836313 14677
